QIANFAN-105             
1 66047U 25233Q   25330.99058492  .00000235  00000+0  13030-3 0  9996
2 66047  88.9966  63.8714 0017494  87.0094 273.3091 14.07724977  5786
QIANFAN-106             
1 66048U 25233R   25331.00462099  .00000161  00000+0  92018-4 0  9994
2 66048  88.9962  63.8725 0018024  87.3574 272.9671 14.04569700  5788
QIANFAN-107             
1 66049U 25233S   25330.99024491  .00000390  00000+0  22805-3 0  9992
2 66049  88.9967  63.8710 0018105  87.4795 272.8460 14.06314440  5780
QIANFAN-108             
1 66050U 25233T   25330.99680617  .00000282  00000+0  16332-3 0  9990
2 66050  88.9964  63.8718 0017250  88.7028 271.6130 14.05964499  5785
